{
  "type": "FeatureCollection",
  "features": [
    {
      "type": "Feature",
      "properties": {
        "norad_id": 29268,
        "name": "ARIRANG-2 (KOMPSAT-2)",
        "group": "resource",
        "lat": -79.9960654200596,
        "lon": -56.857848022826964,
        "alt_km": 679.7120489879244,
        "timestamp": "2025-12-11T20:41:14.743776+00:00",
        "meta_object_name": "ARIRANG-2 (KOMPSAT-2)",
        "meta_object_id": "2006-031A",
        "meta_epoch": "2025-12-11T14:53:49.161696",
        "meta_mean_motion": 14.64491361,
        "meta_eccentricity": 0.00135609,
        "meta_inclination": 97.8263,
        "meta_ra_of_asc_node": 174.1482,
        "meta_arg_of_pericenter": 313.0151,
        "meta_mean_anomaly": 119.6004,
        "meta_ephemeris_type": 0,
        "meta_classification_type": "U",
        "meta_norad_cat_id": 29268,
        "meta_element_set_no": 999,
        "meta_rev_at_epoch": 3402,
        "meta_bstar": 9.4868529e-05,
        "meta_mean_motion_dot": 4.58e-06,
        "meta_mean_motion_ddot": 0,
        "tle_line1": "1 29268U 06031A   25345.62070789  .00000458  00000+0  94869-4 0  9991",
        "tle_line2": "2 29268  97.8263 174.1482 0013560 313.0151 119.6004 14.64491361 34029"
      },
      "geometry": {
        "type": "Point",
        "coordinates": [
          -56.857848022826964,
          -79.9960654200596
        ]
      }
    },
    {
      "type": "Feature",
      "properties": {
        "norad_id": 29709,
        "name": "LAPAN-TUBSAT",
        "group": "resource",
        "lat": 47.56318987462596,
        "lon": 164.99085870585745,
        "alt_km": 601.8251222305244,
        "timestamp": "2025-12-11T20:41:14.743787+00:00",
        "meta_object_name": "LAPAN-TUBSAT",
        "meta_object_id": "2007-001A",
        "meta_epoch": "2025-12-11T13:37:55.632000",
        "meta_mean_motion": 14.85666333,
        "meta_eccentricity": 0.00136733,
        "meta_inclination": 98.1261,
        "meta_ra_of_asc_node": 335.7001,
        "meta_arg_of_pericenter": 77.4227,
        "meta_mean_anomaly": 282.8516,
        "meta_ephemeris_type": 0,
        "meta_classification_type": "U",
        "meta_norad_cat_id": 29709,
        "meta_element_set_no": 999,
        "meta_rev_at_epoch": 2329,
        "meta_bstar": 7.7452567e-05,
        "meta_mean_motion_dot": 6.15e-06,
        "meta_mean_motion_ddot": 0,
        "tle_line1": "1 29709U 07001A   25345.56800500  .00000615  00000+0  77453-4 0  9999",
        "tle_line2": "2 29709  98.1261 335.7001 0013673  77.4227 282.8516 14.85666333 23297"
      },
      "geometry": {
        "type": "Point",
        "coordinates": [
          164.99085870585745,
          47.56318987462596
        ]
      }
    },
    {
      "type": "Feature",
      "properties": {
        "norad_id": 31113,
        "name": "HAIYANG-1B",
        "group": "resource",
        "lat": -9.526949981181955,
        "lon": 148.76706748298412,
        "alt_km": 801.4064136292518,
        "timestamp": "2025-12-11T20:41:14.743797+00:00",
        "meta_object_name": "HAIYANG-1B",
        "meta_object_id": "2007-010A",
        "meta_epoch": "2025-12-11T11:24:52.861248",
        "meta_mean_motion": 14.30964496,
        "meta_eccentricity": 0.00143096,
        "meta_inclination": 98.3314,
        "meta_ra_of_asc_node": 329.8059,
        "meta_arg_of_pericenter": 41.4958,
        "meta_mean_anomaly": 318.731,
        "meta_ephemeris_type": 0,
        "meta_classification_type": "U",
        "meta_norad_cat_id": 31113,
        "meta_element_set_no": 999,
        "meta_rev_at_epoch": 97378,
        "meta_bstar": 0.00010317662,
        "meta_mean_motion_dot": 2.3e-06,
        "meta_mean_motion_ddot": 0,
        "tle_line1": "1 31113U 07010A   25345.47561182  .00000230  00000+0  10318-3 0  9990",
        "tle_line2": "2 31113  98.3314 329.8059 0014309  41.4958 318.7310 14.30964496973786"
      },
      "geometry": {
        "type": "Point",
        "coordinates": [
          148.76706748298412,
          -9.526949981181955
        ]
      }
    },
    {
      "type": "Feature",
      "properties": {
        "norad_id": 31598,
        "name": "COSMO-SKYMED 1",
        "group": "resource",
        "lat": 54.97169527751863,
        "lon": 159.85401759600484,
        "alt_km": 574.1694694624712,
        "timestamp": "2025-12-11T20:41:14.743808+00:00",
        "meta_object_name": "COSMO-SKYMED 1",
        "meta_object_id": "2007-023A",
        "meta_epoch": "2025-12-11T14:01:00.803712",
        "meta_mean_motion": 14.9574915,
        "meta_eccentricity": 0.0001113,
        "meta_inclination": 97.8835,
        "meta_ra_of_asc_node": 170.9757,
        "meta_arg_of_pericenter": 87.227,
        "meta_mean_anomaly": 272.9078,
        "meta_ephemeris_type": 0,
        "meta_classification_type": "U",
        "meta_norad_cat_id": 31598,
        "meta_element_set_no": 999,
        "meta_rev_at_epoch": 173,
        "meta_bstar": 0.00051419605,
        "meta_mean_motion_dot": 5.673e-05,
        "meta_mean_motion_ddot": 0,
        "tle_line1": "1 31598U 07023A   25345.58403708  .00005673  00000+0  51420-3 0  9997",
        "tle_line2": "2 31598  97.8835 170.9757 0001113  87.2270 272.9078 14.95749150  1737"
      },
      "geometry": {
        "type": "Point",
        "coordinates": [
          159.85401759600484,
          54.97169527751863
        ]
      }
    },
    {
      "type": "Feature",
      "properties": {
        "norad_id": 31698,
        "name": "TERRASAR-X",
        "group": "resource",
        "lat": -2.1807029251674073,
        "lon": -8.45928023421072,
        "alt_km": 511.83738792592067,
        "timestamp": "2025-12-11T20:41:14.743818+00:00",
        "meta_object_name": "TERRASAR-X",
        "meta_object_id": "2007-026A",
        "meta_epoch": "2025-12-11T11:12:43.517376",
        "meta_mean_motion": 15.19155336,
        "meta_eccentricity": 0.00018891,
        "meta_inclination": 97.4455,
        "meta_ra_of_asc_node": 350.8663,
        "meta_arg_of_pericenter": 92.9175,
        "meta_mean_anomaly": 267.2276,
        "meta_ephemeris_type": 0,
        "meta_classification_type": "U",
        "meta_norad_cat_id": 31698,
        "meta_element_set_no": 999,
        "meta_rev_at_epoch": 2472,
        "meta_bstar": 9.3381918e-05,
        "meta_mean_motion_dot": 1.895e-05,
        "meta_mean_motion_ddot": 0,
        "tle_line1": "1 31698U 07026A   25345.46717034  .00001895  00000+0  93382-4 0  9994",
        "tle_line2": "2 31698  97.4455 350.8663 0001889  92.9175 267.2276 15.19155336 24729"
      },
      "geometry": {
        "type": "Point",
        "coordinates": [
          -8.45928023421072,
          -2.1807029251674073
        ]
      }
    },
    {
      "type": "Feature",
      "properties": {
        "norad_id": 32060,
        "name": "WORLDVIEW-1 (WV-1)",
        "group": "resource",
        "lat": -18.17426798374962,
        "lon": 105.79487324847995,
        "alt_km": 497.1932054579711,
        "timestamp": "2025-12-11T20:41:14.743829+00:00",
        "meta_object_name": "WORLDVIEW-1 (WV-1)",
        "meta_object_id": "2007-041A",
        "meta_epoch": "2025-12-11T14:28:01.680672",
        "meta_mean_motion": 15.24659372,
        "meta_eccentricity": 7.588e-05,
        "meta_inclination": 97.3834,
        "meta_ra_of_asc_node": 103.0996,
        "meta_arg_of_pericenter": 105.8476,
        "meta_mean_anomaly": 254.2845,
        "meta_ephemeris_type": 0,
        "meta_classification_type": "U",
        "meta_norad_cat_id": 32060,
        "meta_element_set_no": 999,
        "meta_rev_at_epoch": 1430,
        "meta_bstar": 0.00053224851,
        "meta_mean_motion_dot": 0.00013088,
        "meta_mean_motion_ddot": 0,
        "tle_line1": "1 32060U 07041A   25345.60279723  .00013088  00000+0  53225-3 0  9997",
        "tle_line2": "2 32060  97.3834 103.0996 0000758 105.8476 254.2845 15.24659372 14308"
      },
      "geometry": {
        "type": "Point",
        "coordinates": [
          105.79487324847995,
          -18.17426798374962
        ]
      }
    },
    {
      "type": "Feature",
      "properties": {
        "norad_id": 32289,
        "name": "YAOGAN-3",
        "group": "resource",
        "lat": -74.14593704914272,
        "lon": 41.50482073662841,
        "alt_km": 606.4542476499582,
        "timestamp": "2025-12-11T20:41:14.743839+00:00",
        "meta_object_name": "YAOGAN-3",
        "meta_object_id": "2007-055A",
        "meta_epoch": "2025-12-11T12:58:10.185888",
        "meta_mean_motion": 14.89851045,
        "meta_eccentricity": 0.00012438,
        "meta_inclination": 97.8365,
        "meta_ra_of_asc_node": 12.176,
        "meta_arg_of_pericenter": 74.0838,
        "meta_mean_anomaly": 286.0516,
        "meta_ephemeris_type": 0,
        "meta_classification_type": "U",
        "meta_norad_cat_id": 32289,
        "meta_element_set_no": 999,
        "meta_rev_at_epoch": 97791,
        "meta_bstar": 0.00061895324,
        "meta_mean_motion_dot": 5.893e-05,
        "meta_mean_motion_ddot": 0,
        "tle_line1": "1 32289U 07055A   25345.54039567  .00005893  00000+0  61895-3 0  9995",
        "tle_line2": "2 32289  97.8365  12.1760 0001243  74.0838 286.0516 14.89851045977917"
      },
      "geometry": {
        "type": "Point",
        "coordinates": [
          41.50482073662841,
          -74.14593704914272
        ]
      }
    }
  ]
}